start=new Date('2022-10-13T00:00:00.000Z').valueOf();
sats=[{"GP_ID":"214922670","OBJECT_TYPE":"PAYLOAD","REF_FRAME":"TEME","EPOCH":"2022-10-12T17:15:33.116256","MEAN_ANOMALY":"109.7869","MEAN_ELEMENT_THEORY":"SGP4","MEAN_MOTION_DDOT":"0.0000000000000","RCS_SIZE":"LARGE","TLE_LINE1":"1 49171U 21082AT  22285.71913329  .00001603  00000-0  14208-3 0  9997","OBJECT_ID":"2021-082AT","EPHEMERIS_TYPE":"0","NORAD_CAT_ID":"49171","RA_OF_ASC_NODE":"190.9370","OBJECT_NAME":"STARLINK-3107","ARG_OF_PERICENTER":"250.2948","MEAN_MOTION":"14.98327952","LAUNCH_DATE":"2021-09-14","PERIAPSIS":"569.861","SEMIMAJOR_AXIS":"6950.199","ELEMENT_SET_NO":"999","CLASSIFICATION_TYPE":"U","TLE_LINE2":"2 49171  69.9993 190.9370 0003170 250.2948 109.7869 14.98327952 60803","BSTAR":"0.00014208000000","ECCENTRICITY":"0.00031700","TIME_SYSTEM":"UTC","SITE":"AFWTR","INCLINATION":"69.9993","REV_AT_EPOCH":"6080","CENTER_NAME":"EARTH","PERIOD":"96.107","MEAN_MOTION_DOT":"0.00001603","APOAPSIS":"574.267","DECAY_DATE":null,"FILE":"3606891","COUNTRY_CODE":"US"},{"INCLINATION":"70.0006","REV_AT_EPOCH":"6015","ECCENTRICITY":"0.00028780","TIME_SYSTEM":"UTC","SITE":"AFWTR","BSTAR":"0.00021603000000","TLE_LINE2":"2 49172  70.0006 170.5828 0002878 254.9011 105.1829 14.98323186 60159","ELEMENT_SET_NO":"999","CLASSIFICATION_TYPE":"U","FILE":"3606891","COUNTRY_CODE":"US","APOAPSIS":"574.079","DECAY_DATE":null,"PERIOD":"96.107","MEAN_MOTION_DOT":"0.00002485","CENTER_NAME":"EARTH","MEAN_MOTION_DDOT":"0.0000000000000","RCS_SIZE":"LARGE","TLE_LINE1":"1 49172U 21082AU  22285.86351758  .00002485  00000-0  21603-3 0  9992","OBJECT_ID":"2021-082AU","MEAN_ANOMALY":"105.1829","MEAN_ELEMENT_THEORY":"SGP4","REF_FRAME":"TEME","EPOCH":"2022-10-12T20:43:27.918912","GP_ID":"214922419","OBJECT_TYPE":"PAYLOAD","LAUNCH_DATE":"2021-09-14","PERIAPSIS":"570.079","SEMIMAJOR_AXIS":"6950.214","MEAN_MOTION":"14.98323186","OBJECT_NAME":"STARLINK-3091","ARG_OF_PERICENTER":"254.9011","EPHEMERIS_TYPE":"0","NORAD_CAT_ID":"49172","RA_OF_ASC_NODE":"170.5828"},{"COUNTRY_CODE":"US","FILE":"3606891","DECAY_DATE":null,"APOAPSIS":"574.285","MEAN_MOTION_DOT":"0.00001832","PERIOD":"96.107","CENTER_NAME":"EARTH","REV_AT_EPOCH":"6015","INCLINATION":"69.9989","SITE":"AFWTR","TIME_SYSTEM":"UTC","ECCENTRICITY":"0.00032060","TLE_LINE2":"2 49173  69.9989 170.6866 0003206 251.9646 108.1164 14.98330371 60156","BSTAR":"0.00016133000000","CLASSIFICATION_TYPE":"U","ELEMENT_SET_NO":"999","SEMIMAJOR_AXIS":"6950.192","PERIAPSIS":"569.829","LAUNCH_DATE":"2021-09-14","MEAN_MOTION":"14.98330371","ARG_OF_PERICENTER":"251.9646","OBJECT_NAME":"STARLINK-3045","RA_OF_ASC_NODE":"170.6866","NORAD_CAT_ID":"49173","EPHEMERIS_TYPE":"0","OBJECT_ID":"2021-082AV","TLE_LINE1":"1 49173U 21082AV  22285.81787627  .00001832  00000-0  16133-3 0  9993","RCS_SIZE":"LARGE","MEAN_MOTION_DDOT":"0.0000000000000","MEAN_ELEMENT_THEORY":"SGP4","MEAN_ANOMALY":"108.1164","EPOCH":"2022-10-12T19:37:44.509728","REF_FRAME":"TEME","OBJECT_TYPE":"PAYLOAD","GP_ID":"214923665"},{"FILE":"3606891","COUNTRY_CODE":"US","APOAPSIS":"575.896","DECAY_DATE":null,"PERIOD":"96.154","MEAN_MOTION_DOT":"0.00008477","CENTER_NAME":"EARTH","INCLINATION":"70.0003","REV_AT_EPOCH":"6129","TIME_SYSTEM":"UTC","ECCENTRICITY":"0.00022290","SITE":"AFWTR","TLE_LINE2":"2 49174  70.0003 171.2625 0002229 287.3431  72.7484 14.97590162 61298","BSTAR":"0.00073114000000","ELEMENT_SET_NO":"999","CLASSIFICATION_TYPE":"U","LAUNCH_DATE":"2021-09-14","PERIAPSIS":"572.797","SEMIMAJOR_AXIS":"6952.482","MEAN_MOTION":"14.97590162","OBJECT_NAME":"STARLINK-3047","ARG_OF_PERICENTER":"287.3431","EPHEMERIS_TYPE":"0","NORAD_CAT_ID":"49174","RA_OF_ASC_NODE":"171.2625","MEAN_MOTION_DDOT":"0.0000000000000","RCS_SIZE":"LARGE","TLE_LINE1":"1 49174U 21082AW  22285.63717992  .00008477  00000-0  73114-3 0  9996","OBJECT_ID":"2021-082AW","MEAN_ANOMALY":"72.7484","MEAN_ELEMENT_THEORY":"SGP4","REF_FRAME":"TEME","EPOCH":"2022-10-12T15:17:32.345088","GP_ID":"214923906","OBJECT_TYPE":"PAYLOAD"},{"OBJECT_NAME":"STARLINK-3087","ARG_OF_PERICENTER":"268.3860","RA_OF_ASC_NODE":"170.9680","EPHEMERIS_TYPE":"0","NORAD_CAT_ID":"49175","PERIAPSIS":"569.281","SEMIMAJOR_AXIS":"6950.186","LAUNCH_DATE":"2021-09-14","MEAN_MOTION":"14.98332134","EPOCH":"2022-10-12T17:03:43.904448","REF_FRAME":"TEME","GP_ID":"214922170","OBJECT_TYPE":"PAYLOAD","RCS_SIZE":"LARGE","OBJECT_ID":"2021-082AX","TLE_LINE1":"1 49175U 21082AX  22285.71092482  .00002574  00000-0  22340-3 0  9993","MEAN_MOTION_DDOT":"0.0000000000000","MEAN_ELEMENT_THEORY":"SGP4","MEAN_ANOMALY":"91.6843","MEAN_MOTION_DOT":"0.00002574","PERIOD":"96.107","CENTER_NAME":"EARTH","COUNTRY_CODE":"US","FILE":"3606891","DECAY_DATE":null,"APOAPSIS":"574.822","TLE_LINE2":"2 49175  69.9994 170.9680 0003986 268.3860  91.6843 14.98332134 60133","BSTAR":"0.00022340000000","CLASSIFICATION_TYPE":"U","ELEMENT_SET_NO":"999","REV_AT_EPOCH":"6013","INCLINATION":"69.9994","SITE":"AFWTR","ECCENTRICITY":"0.00039860","TIME_SYSTEM":"UTC"},{"PERIOD":"96.107","MEAN_MOTION_DOT":"0.00000233","CENTER_NAME":"EARTH","FILE":"3606891","COUNTRY_CODE":"US","APOAPSIS":"574.390","DECAY_DATE":null,"TLE_LINE2":"2 49176  69.9996 150.8242 0003337 259.7025 100.3757 14.98325750 60637","BSTAR":"0.00002736700000","ELEMENT_SET_NO":"999","CLASSIFICATION_TYPE":"U","INCLINATION":"69.9996","REV_AT_EPOCH":"6063","TIME_SYSTEM":"UTC","ECCENTRICITY":"0.00033370","SITE":"AFWTR","OBJECT_NAME":"STARLINK-3069","ARG_OF_PERICENTER":"259.7025","EPHEMERIS_TYPE":"0","NORAD_CAT_ID":"49176","RA_OF_ASC_NODE":"150.8242","LAUNCH_DATE":"2021-09-14","PERIAPSIS":"569.752","SEMIMAJOR_AXIS":"6950.206","MEAN_MOTION":"14.98325750","REF_FRAME":"TEME","EPOCH":"2022-10-12T18:24:08.017344","GP_ID":"214922920","OBJECT_TYPE":"PAYLOAD","MEAN_MOTION_DDOT":"0.0000000000000","RCS_SIZE":"LARGE","OBJECT_ID":"2021-082AY","TLE_LINE1":"1 49176U 21082AY  22285.76675946  .00000233  00000-0  27367-4 0  9996","MEAN_ANOMALY":"100.3757","MEAN_ELEMENT_THEORY":"SGP4"},{"MEAN_MOTION_DDOT":"0.0000000000000","RCS_SIZE":"LARGE","OBJECT_ID":"2021-082AZ","TLE_LINE1":"1 49177U 21082AZ  22285.05149493  .00008393  00000-0  71089-3 0  9996","MEAN_ANOMALY":"86.4710","MEAN_ELEMENT_THEORY":"SGP4","REF_FRAME":"TEME","EPOCH":"2022-10-12T01:14:09.161952","GP_ID":"214883025","OBJECT_TYPE":"PAYLOAD","LAUNCH_DATE":"2021-09-14","PERIAPSIS":"570.166","SEMIMAJOR_AXIS":"6950.282","MEAN_MOTION":"14.98301155","OBJECT_NAME":"STARLINK-3103","ARG_OF_PERICENTER":"273.6123","EPHEMERIS_TYPE":"0","NORAD_CAT_ID":"49177","RA_OF_ASC_NODE":"152.6308","INCLINATION":"70.0009","REV_AT_EPOCH":"6172","TIME_SYSTEM":"UTC","ECCENTRICITY":"0.00028510","SITE":"AFWTR","TLE_LINE2":"2 49177  70.0009 152.6308 0002851 273.6123  86.4710 14.98301155 61720","BSTAR":"0.00071089000000","ELEMENT_SET_NO":"999","CLASSIFICATION_TYPE":"U","FILE":"3606148","COUNTRY_CODE":"US","APOAPSIS":"574.129","DECAY_DATE":null,"PERIOD":"96.109","MEAN_MOTION_DOT":"0.00008393","CENTER_NAME":"EARTH"},{"LAUNCH_DATE":"2021-09-14","PERIAPSIS":"569.783","SEMIMAJOR_AXIS":"6950.200","MEAN_MOTION":"14.98327665","OBJECT_NAME":"STARLINK-3086","ARG_OF_PERICENTER":"245.8225","EPHEMERIS_TYPE":"0","NORAD_CAT_ID":"49178","RA_OF_ASC_NODE":"190.7071","MEAN_MOTION_DDOT":"0.0000000000000","RCS_SIZE":"LARGE","OBJECT_ID":"2021-082BA","TLE_LINE1":"1 49178U 21082BA  22285.81451271  .00005089  00000-0  43397-3 0  9991","MEAN_ANOMALY":"114.2591","MEAN_ELEMENT_THEORY":"SGP4","REF_FRAME":"TEME","EPOCH":"2022-10-12T19:32:53.898144","GP_ID":"214923406","OBJECT_TYPE":"PAYLOAD","FILE":"3606891","COUNTRY_CODE":"US","APOAPSIS":"574.347","DECAY_DATE":null,"PERIOD":"96.107","MEAN_MOTION_DOT":"0.00005089","CENTER_NAME":"EARTH","INCLINATION":"70.0017","REV_AT_EPOCH":"6081","ECCENTRICITY":"0.00032830","TIME_SYSTEM":"UTC","SITE":"AFWTR","BSTAR":"0.00043397000000","TLE_LINE2":"2 49178  70.0017 190.7071 0003283 245.8225 114.2591 14.98327665 60814","ELEMENT_SET_NO":"999","CLASSIFICATION_TYPE":"U"},{"CLASSIFICATION_TYPE":"U","ELEMENT_SET_NO":"999","TLE_LINE2":"2 49179  70.0042 151.1364 0004970 259.1955 100.8645 14.98329467 60612","BSTAR":"0.00048556000000","SITE":"AFWTR","TIME_SYSTEM":"UTC","ECCENTRICITY":"0.00049700","REV_AT_EPOCH":"6061","INCLINATION":"70.0042","CENTER_NAME":"EARTH","MEAN_MOTION_DOT":"0.00005706","PERIOD":"96.107","DECAY_DATE":null,"APOAPSIS":"575.514","COUNTRY_CODE":"US","FILE":"3606891","OBJECT_TYPE":"PAYLOAD","GP_ID":"214922671","EPOCH":"2022-10-12T15:25:35.800608","REF_FRAME":"TEME","MEAN_ELEMENT_THEORY":"SGP4","MEAN_ANOMALY":"100.8645","OBJECT_ID":"2021-082BB","TLE_LINE1":"1 49179U 21082BB  22285.64277547  .00005706  00000-0  48556-3 0  9993","RCS_SIZE":"LARGE","MEAN_MOTION_DDOT":"0.0000000000000","RA_OF_ASC_NODE":"151.1364","NORAD_CAT_ID":"49179","EPHEMERIS_TYPE":"0","ARG_OF_PERICENTER":"259.1955","OBJECT_NAME":"STARLINK-3043","MEAN_MOTION":"14.98329467","SEMIMAJOR_AXIS":"6950.195","PERIAPSIS":"568.605","LAUNCH_DATE":"2021-09-14"},{"APOAPSIS":"573.995","DECAY_DATE":null,"FILE":"3606891","COUNTRY_CODE":"US","CENTER_NAME":"EARTH","PERIOD":"96.107","MEAN_MOTION_DOT":"0.00002325","TIME_SYSTEM":"UTC","ECCENTRICITY":"0.00027900","SITE":"AFWTR","INCLINATION":"70.0039","REV_AT_EPOCH":"6130","ELEMENT_SET_NO":"999","CLASSIFICATION_TYPE":"U","TLE_LINE2":"2 49180  70.0039 171.0067 0002790 258.0912 101.9934 14.98330734 61309","BSTAR":"0.00020258000000","MEAN_MOTION":"14.98330734","LAUNCH_DATE":"2021-09-14","SEMIMAJOR_AXIS":"6950.191","PERIAPSIS":"570.117","NORAD_CAT_ID":"49180","EPHEMERIS_TYPE":"0","RA_OF_ASC_NODE":"171.0067","ARG_OF_PERICENTER":"258.0912","OBJECT_NAME":"STARLINK-3050","MEAN_ANOMALY":"101.9934","MEAN_ELEMENT_THEORY":"SGP4","MEAN_MOTION_DDOT":"0.0000000000000","OBJECT_ID":"2021-082BC","TLE_LINE1":"1 49180U 21082BC  22285.69185147  .00002325  00000-0  20258-3 0  9997","RCS_SIZE":"LARGE","OBJECT_TYPE":"PAYLOAD","GP_ID":"214922420","REF_FRAME":"TEME","EPOCH":"2022-10-12T16:36:15.967008"}];
